[{"OBJECT_NAME":"FLOCK 4BE-22","OBJECT_ID":"2024-149AC","EPOCH":"2026-03-06T04:20:09.591648","MEAN_MOTION":15.37557054,"ECCENTRICITY":0.0002763,"INCLINATION":97.3781,"RA_OF_ASC_NODE":148.0127,"ARG_OF_PERICENTER":276.5088,"MEAN_ANOMALY":83.5842,"EPHEMERIS_TYPE":0,"CLASSIFICATION_TYPE":"U","NORAD_CAT_ID":60494,"ELEMENT_SET_NO":999,"REV_AT_EPOCH":8645,"BSTAR":0.00060821011,"MEAN_MOTION_DOT":0.0002237,"MEAN_MOTION_DDOT":0},{"OBJECT_NAME":"FLOCK 4BE-34","OBJECT_ID":"2024-149AD","EPOCH":"2026-03-06T04:52:47.311104","MEAN_MOTION":15.37830063,"ECCENTRICITY":0.00023303,"INCLINATION":97.3825,"RA_OF_ASC_NODE":148.7804,"ARG_OF_PERICENTER":278.9518,"MEAN_ANOMALY":81.1463,"EPHEMERIS_TYPE":0,"CLASSIFICATION_TYPE":"U","NORAD_CAT_ID":60495,"ELEMENT_SET_NO":999,"REV_AT_EPOCH":8648,"BSTAR":0.00046953328,"MEAN_MOTION_DOT":0.00017392,"MEAN_MOTION_DDOT":0},{"OBJECT_NAME":"FLOCK 4BE-32","OBJECT_ID":"2024-149AF","EPOCH":"2026-03-06T05:20:24.232416","MEAN_MOTION":15.38292596,"ECCENTRICITY":0.00027064,"INCLINATION":97.3769,"RA_OF_ASC_NODE":148.3064,"ARG_OF_PERICENTER":279.5671,"MEAN_ANOMALY":80.5268,"EPHEMERIS_TYPE":0,"CLASSIFICATION_TYPE":"U","NORAD_CAT_ID":60497,"ELEMENT_SET_NO":999,"REV_AT_EPOCH":8648,"BSTAR":0.00058879931,"MEAN_MOTION_DOT":0.00022176,"MEAN_MOTION_DDOT":0},{"OBJECT_NAME":"FLOCK 4BE-30","OBJECT_ID":"2024-149AH","EPOCH":"2026-03-06T04:02:14.035200","MEAN_MOTION":15.38080785,"ECCENTRICITY":0.00019874,"INCLINATION":97.3853,"RA_OF_ASC_NODE":148.8112,"ARG_OF_PERICENTER":277.5822,"MEAN_ANOMALY":82.5197,"EPHEMERIS_TYPE":0,"CLASSIFICATION_TYPE":"U","NORAD_CAT_ID":60499,"ELEMENT_SET_NO":999,"REV_AT_EPOCH":8585,"BSTAR":0.00039496784,"MEAN_MOTION_DOT":0.00014732,"MEAN_MOTION_DDOT":0},{"OBJECT_NAME":"FLOCK 4BE-11","OBJECT_ID":"2024-149AK","EPOCH":"2026-03-06T04:59:11.667552","MEAN_MOTION":15.39115067,"ECCENTRICITY":0.00030793,"INCLINATION":97.3748,"RA_OF_ASC_NODE":148.4191,"ARG_OF_PERICENTER":279.7253,"MEAN_ANOMALY":80.3645,"EPHEMERIS_TYPE":0,"CLASSIFICATION_TYPE":"U","NORAD_CAT_ID":60501,"ELEMENT_SET_NO":999,"REV_AT_EPOCH":8649,"BSTAR":0.00060856839,"MEAN_MOTION_DOT":0.00023551,"MEAN_MOTION_DDOT":0},{"OBJECT_NAME":"FLOCK 4BE-24","OBJECT_ID":"2024-149AP","EPOCH":"2026-03-06T04:32:15.921024","MEAN_MOTION":15.38980445,"ECCENTRICITY":0.00029394,"INCLINATION":97.3764,"RA_OF_ASC_NODE":148.6464,"ARG_OF_PERICENTER":290.4511,"MEAN_ANOMALY":69.6419,"EPHEMERIS_TYPE":0,"CLASSIFICATION_TYPE":"U","NORAD_CAT_ID":60505,"ELEMENT_SET_NO":999,"REV_AT_EPOCH":8650,"BSTAR":0.00061794252,"MEAN_MOTION_DOT":0.0002381,"MEAN_MOTION_DDOT":0},{"OBJECT_NAME":"TANAGER-1","OBJECT_ID":"2024-149AR","EPOCH":"2026-03-05T08:23:36.927744","MEAN_MOTION":15.43548696,"ECCENTRICITY":0.0006725,"INCLINATION":97.377,"RA_OF_ASC_NODE":157.6642,"ARG_OF_PERICENTER":235.9479,"MEAN_ANOMALY":124.1131,"EPHEMERIS_TYPE":0,"CLASSIFICATION_TYPE":"U","NORAD_CAT_ID":60507,"ELEMENT_SET_NO":999,"REV_AT_EPOCH":8701,"BSTAR":0.00012407,"MEAN_MOTION_DOT":5.482e-5,"MEAN_MOTION_DDOT":0},{"OBJECT_NAME":"FLOCK 4BE-29","OBJECT_ID":"2024-149AT","EPOCH":"2026-03-06T05:14:50.336160","MEAN_MOTION":15.40257896,"ECCENTRICITY":0.00019514,"INCLINATION":97.3848,"RA_OF_ASC_NODE":149.8126,"ARG_OF_PERICENTER":310.1031,"MEAN_ANOMALY":50.0044,"EPHEMERIS_TYPE":0,"CLASSIFICATION_TYPE":"U","NORAD_CAT_ID":60509,"ELEMENT_SET_NO":999,"REV_AT_EPOCH":8654,"BSTAR":0.00063576392,"MEAN_MOTION_DOT":0.00025551,"MEAN_MOTION_DDOT":0},{"OBJECT_NAME":"FLOCK 4BE-2","OBJECT_ID":"2024-149AV","EPOCH":"2026-03-06T04:37:05.144160","MEAN_MOTION":15.42828947,"ECCENTRICITY":0.00027797,"INCLINATION":97.3854,"RA_OF_ASC_NODE":150.3506,"ARG_OF_PERICENTER":286.1155,"MEAN_ANOMALY":73.9786,"EPHEMERIS_TYPE":0,"CLASSIFICATION_TYPE":"U","NORAD_CAT_ID":60511,"ELEMENT_SET_NO":999,"REV_AT_EPOCH":8657,"BSTAR":0.0010165445,"MEAN_MOTION_DOT":0.00044659,"MEAN_MOTION_DDOT":0},{"OBJECT_NAME":"FLOCK 4BE-13","OBJECT_ID":"2024-149AW","EPOCH":"2026-03-06T04:40:19.796448","MEAN_MOTION":15.38659812,"ECCENTRICITY":0.00034237,"INCLINATION":97.3766,"RA_OF_ASC_NODE":148.7545,"ARG_OF_PERICENTER":282.3434,"MEAN_ANOMALY":77.7428,"EPHEMERIS_TYPE":0,"CLASSIFICATION_TYPE":"U","NORAD_CAT_ID":60512,"ELEMENT_SET_NO":999,"REV_AT_EPOCH":8651,"BSTAR":0.00052943675,"MEAN_MOTION_DOT":0.00020167,"MEAN_MOTION_DDOT":0},{"OBJECT_NAME":"FLOCK 4BE-27","OBJECT_ID":"2024-149AX","EPOCH":"2026-03-06T05:27:41.516640","MEAN_MOTION":15.32496893,"ECCENTRICITY":0.00028087,"INCLINATION":97.387,"RA_OF_ASC_NODE":147.1582,"ARG_OF_PERICENTER":323.4674,"MEAN_ANOMALY":36.6376,"EPHEMERIS_TYPE":0,"CLASSIFICATION_TYPE":"U","NORAD_CAT_ID":60513,"ELEMENT_SET_NO":999,"REV_AT_EPOCH":8636,"BSTAR":0.00039794829,"MEAN_MOTION_DOT":0.00012417,"MEAN_MOTION_DDOT":0},{"OBJECT_NAME":"FLOCK 4BE-9","OBJECT_ID":"2024-149AY","EPOCH":"2026-03-06T04:15:21.210912","MEAN_MOTION":15.37434715,"ECCENTRICITY":0.00015483,"INCLINATION":97.3832,"RA_OF_ASC_NODE":148.6883,"ARG_OF_PERICENTER":316.8578,"MEAN_ANOMALY":43.2545,"EPHEMERIS_TYPE":0,"CLASSIFICATION_TYPE":"U","NORAD_CAT_ID":60514,"ELEMENT_SET_NO":999,"REV_AT_EPOCH":8647,"BSTAR":0.00048724022,"MEAN_MOTION_DOT":0.00017822,"MEAN_MOTION_DDOT":0},{"OBJECT_NAME":"FLOCK 4BE-6","OBJECT_ID":"2024-149BA","EPOCH":"2026-03-06T04:46:16.169664","MEAN_MOTION":15.36478486,"ECCENTRICITY":0.00023073,"INCLINATION":97.3838,"RA_OF_ASC_NODE":148.2402,"ARG_OF_PERICENTER":310.1409,"MEAN_ANOMALY":49.9633,"EPHEMERIS_TYPE":0,"CLASSIFICATION_TYPE":"U","NORAD_CAT_ID":60516,"ELEMENT_SET_NO":999,"REV_AT_EPOCH":8644,"BSTAR":0.00046806552,"MEAN_MOTION_DOT":0.00016596,"MEAN_MOTION_DDOT":0},{"OBJECT_NAME":"FLOCK 4BE-14","OBJECT_ID":"2024-149BB","EPOCH":"2026-03-06T04:47:43.590912","MEAN_MOTION":15.37526499,"ECCENTRICITY":0.00032766,"INCLINATION":97.3749,"RA_OF_ASC_NODE":148.3121,"ARG_OF_PERICENTER":306.2436,"MEAN_ANOMALY":53.8505,"EPHEMERIS_TYPE":0,"CLASSIFICATION_TYPE":"U","NORAD_CAT_ID":60517,"ELEMENT_SET_NO":999,"REV_AT_EPOCH":8648,"BSTAR":0.00052566114,"MEAN_MOTION_DOT":0.00019297,"MEAN_MOTION_DDOT":0},{"OBJECT_NAME":"FLOCK 4BE-1","OBJECT_ID":"2024-149BC","EPOCH":"2026-03-06T04:25:23.189088","MEAN_MOTION":15.38793321,"ECCENTRICITY":0.00032683,"INCLINATION":97.3824,"RA_OF_ASC_NODE":149.2306,"ARG_OF_PERICENTER":301.878,"MEAN_ANOMALY":58.2147,"EPHEMERIS_TYPE":0,"CLASSIFICATION_TYPE":"U","NORAD_CAT_ID":60518,"ELEMENT_SET_NO":999,"REV_AT_EPOCH":8651,"BSTAR":0.00052924136,"MEAN_MOTION_DOT":0.00020248,"MEAN_MOTION_DDOT":0},{"OBJECT_NAME":"FLOCK 4BE-28","OBJECT_ID":"2024-149BD","EPOCH":"2026-03-06T05:09:52.276032","MEAN_MOTION":15.40816466,"ECCENTRICITY":0.00035375,"INCLINATION":97.3789,"RA_OF_ASC_NODE":149.687,"ARG_OF_PERICENTER":301.5859,"MEAN_ANOMALY":58.5042,"EPHEMERIS_TYPE":0,"CLASSIFICATION_TYPE":"U","NORAD_CAT_ID":60519,"ELEMENT_SET_NO":999,"REV_AT_EPOCH":8656,"BSTAR":0.00061769997,"MEAN_MOTION_DOT":0.00025287,"MEAN_MOTION_DDOT":0}]
